GSAT0101 (PRN E11)      
1 37846U 11060A   23121.18121053 -.00000089  00000+0  00000+0 0  9992
2 37846  57.0857  12.7133 0004305  26.6626 333.3967  1.70476132 71631
GSAT0102 (PRN E12)      
1 37847U 11060B   23120.86547244 -.00000090  00000+0  00000+0 0  9993
2 37847  57.0864  12.7215 0004462 358.9563 213.8821  1.70475483 71635
GSAT0103 (PRN E19)      
1 38857U 12055A   23120.04694842  .00000077  00000+0  00000+0 0  9991
2 38857  55.2386 132.9910 0005863 270.0604  89.9202  1.70473781 65502
GSAT0104 (PRN E20)      
1 38858U 12055B   23121.77634749  .00000088  00000+0  00000+0 0  9995
2 38858  55.2393 132.9450 0003326 269.5305  90.4821  1.70474003 65538
